[{"OBJECT_NAME":"STARLINK-34689","OBJECT_ID":"2025-158T","EPOCH":"2026-03-09T15:10:27.929280","MEAN_MOTION":15.05674471,"ECCENTRICITY":0.0002492,"INCLINATION":97.6025,"RA_OF_ASC_NODE":293.9735,"ARG_OF_PERICENTER":95.2979,"MEAN_ANOMALY":264.8532,"EPHEMERIS_TYPE":0,"CLASSIFICATION_TYPE":"U","NORAD_CAT_ID":64949,"ELEMENT_SET_NO":999,"REV_AT_EPOCH":3534,"BSTAR":0.00044821,"MEAN_MOTION_DOT":6.417e-5,"MEAN_MOTION_DDOT":0},{"OBJECT_NAME":"OBJECT D","OBJECT_ID":"2025-292D","EPOCH":"2026-03-09T21:45:32.907168","MEAN_MOTION":15.05344615,"ECCENTRICITY":0.00138692,"INCLINATION":97.6365,"RA_OF_ASC_NODE":145.5948,"ARG_OF_PERICENTER":343.7291,"MEAN_ANOMALY":16.3488,"EPHEMERIS_TYPE":0,"CLASSIFICATION_TYPE":"U","NORAD_CAT_ID":66996,"ELEMENT_SET_NO":999,"REV_AT_EPOCH":1350,"BSTAR":0.00030674408,"MEAN_MOTION_DOT":4.34e-5,"MEAN_MOTION_DDOT":0}]
